[{"OBJECT_NAME":"STARLINK-31186","OBJECT_ID":"2024-038H","EPOCH":"2026-03-09T06:49:36.011712","MEAN_MOTION":15.27572946,"ECCENTRICITY":0.00011635,"INCLINATION":43.0056,"RA_OF_ASC_NODE":29.5244,"ARG_OF_PERICENTER":274.0063,"MEAN_ANOMALY":86.0656,"EPHEMERIS_TYPE":0,"CLASSIFICATION_TYPE":"U","NORAD_CAT_ID":59030,"ELEMENT_SET_NO":999,"REV_AT_EPOCH":11469,"BSTAR":-4.3729037e-5,"MEAN_MOTION_DOT":-1.465e-5,"MEAN_MOTION_DDOT":0},{"OBJECT_NAME":"FLOCK 4G-17","OBJECT_ID":"2025-009CA","EPOCH":"2026-03-09T22:51:51.984864","MEAN_MOTION":15.27385439,"ECCENTRICITY":0.00036407,"INCLINATION":97.3966,"RA_OF_ASC_NODE":151.0229,"ARG_OF_PERICENTER":339.6132,"MEAN_ANOMALY":20.4962,"EPHEMERIS_TYPE":0,"CLASSIFICATION_TYPE":"U","NORAD_CAT_ID":62681,"ELEMENT_SET_NO":999,"REV_AT_EPOCH":12139,"BSTAR":0.00053710713,"MEAN_MOTION_DOT":0.00014342,"MEAN_MOTION_DDOT":0}]
